0 FENGYUN 1C DEB
1 31566U 99025BZH 13283.32305291  .00002788  00000-0  16159-2 0  7355
2 31566 098.8615 233.3789 0036129 093.8079 063.7346 14.09291246333817
0 FENGYUN 1C DEB
1 31566U 99025BZH 13285.31187247  .00002297  00000-0  13357-2 0  7368
2 31566 098.8617 235.3357 0036051 088.4802 073.6622 14.09300765334095
0 FENGYUN 1C DEB
1 31566U 99025BZH 13288.36319127  .00003428  00000-0  19804-2 0  7371
2 31566 098.8625 238.3380 0036177 080.2101 074.2267 14.09316741334525
0 FENGYUN 1C DEB
1 31566U 99025BZH 13290.69889068  .00003510  00000-0  20265-2 0  7382
2 31566 098.8621 240.6355 0036448 073.8045 044.3674 14.09329139334856
0 FENGYUN 1C DEB
1 31566U 99025BZH 13292.81141774  .00003729  00000-0  21506-2 0  7395
2 31566 098.8639 242.7147 0036561 068.1373 322.2293 14.09342234335154
0 FENGYUN 1C DEB
1 31566U 99025BZH 13296.09732723  .00004072  00000-0  23445-2 0  7407
2 31566 098.8636 245.9488 0036848 059.3671 073.3827 14.09365371335610
